OBJECT_NAME,OBJECT_ID,EPOCH,MEAN_MOTION,ECCENTRICITY,INCLINATION,RA_OF_ASC_NODE,ARG_OF_PERICENTER,MEAN_ANOMALY,EPHEMERIS_TYPE,CLASSIFICATION_TYPE,NORAD_CAT_ID,ELEMENT_SET_NO,REV_AT_EPOCH,BSTAR,MEAN_MOTION_DOT,MEAN_MOTION_DDOT
STARLINK-37491,2026-111U,2026-06-08T19:05:28.386816,15.78137108,.0000776,53.1587,193.6736,96.6098,263.5012,0,U,69166,999,293,.14568E-2,.261122E-2,0
STARLINK-37474,2026-111V,2026-06-08T19:01:47.820576,15.78161275,.0001009,53.1591,193.6569,96.7831,263.3306,0,U,69167,999,293,.17904E-2,.323808E-2,0
STARLINK-37469,2026-111W,2026-06-08T20:00:03.000384,15.63004394,.0001359,53.1597,193.5723,70.2254,101.6054,0,U,69168,999,420,-.32135E-1,-.2577181E-1,0
STARLINK-37515,2026-111X,2026-06-08T14:25:49.461888,15.78191055,.0001178,53.1593,194.5947,78.0554,282.0600,0,U,69169,999,290,.15034E-2,.270437E-2,0
STARLINK-37437,2026-111Y,2026-06-08T14:19:40.762848,15.78115589,.0000916,53.1593,194.5646,76.9353,283.1771,0,U,69170,999,290,.10304E-2,.182608E-2,0
STARLINK-37392,2026-111Z,2026-06-08T20:00:03.000384,15.78059322,.0000989,53.1592,193.3552,87.1449,190.8842,0,U,69171,999,420,-.14427E-3,-.25646E-3,0
STARLINK-37472,2026-111AA,2026-06-08T20:00:03.000384,15.78053469,.0001004,53.1595,193.3234,113.1633,180.0683,0,U,69172,999,420,-.7431E-4,-.13548E-3,0
STARLINK-37461,2026-111AB,2026-06-08T20:00:03.000384,15.64822128,.000125,53.1596,193.5154,85.5264,114.0616,0,U,69173,999,420,-.30096E-1,-.2592919E-1,0
STARLINK-37333,2026-111AC,2026-06-08T14:23:30.476256,15.78121709,.0000682,53.1586,194.5824,132.3218,227.7861,0,U,69174,999,290,.89221E-3,.157605E-2,0
STARLINK-37385,2026-111AD,2026-06-08T20:00:03.000384,15.66794225,.0001131,53.1593,193.4700,87.2305,134.4312,0,U,69175,999,420,-.27647E-1,-.2582165E-1,0
STARLINK-37414,2026-111AE,2026-06-08T20:00:03.000384,15.78024451,.0001253,53.1590,193.3645,112.3606,161.0489,0,U,69176,999,420,.11752E-3,.19757E-3,0
STRIX-7,2026-112A,2026-06-08T17:20:14.199648,15.01394611,.002402,44.9065,236.9073,359.1954,0.8875,0,U,69177,999,260,.30499E-3,.3785E-4,0
SHENZHOU-23 (SZ-23),2026-113A,2026-06-08T12:43:02.663616,15.60445632,.00085483,41.4696,14.6734,8.8388,351.2600,0,U,69180,999,29188,.29104009E-3,.24398E-3,0
STARLINK-37380,2026-114A,2026-06-08T20:00:03.000384,15.78094527,.0001072,53.1583,244.2020,67.2987,143.6577,0,U,69182,999,347,-.52222E-3,-.90544E-3,0
STARLINK-37089,2026-114B,2026-06-08T20:00:03.000384,15.78099622,.0001046,53.1582,244.1909,77.3424,138.9255,0,U,69183,999,347,-.57745E-3,-.99963E-3,0
STARLINK-37428,2026-114C,2026-06-08T20:00:03.000384,15.78098189,.0001049,53.1583,244.1748,77.0725,147.1917,0,U,69184,999,347,-.55005E-3,-.95297E-3,0
STARLINK-37237,2026-114D,2026-06-08T20:00:03.000384,15.78083573,.0001039,53.1586,244.1418,88.3259,151.5871,0,U,69185,999,347,-.33333E-3,-.58224E-3,0
STARLINK-37365,2026-114E,2026-06-08T20:00:03.000384,15.78104038,.0001025,53.1585,244.1456,82.0570,156.0692,0,U,69186,999,347,-.62966E-3,-.10885E-2,0
STARLINK-37209,2026-114F,2026-06-08T20:00:03.000384,15.78087394,.0001022,53.1586,244.1368,84.5843,157.9388,0,U,69187,999,347,-.40816E-3,-.71051E-3,0
STARLINK-37359,2026-114G,2026-06-08T20:00:03.000384,15.78102565,.0000915,53.1587,244.1315,82.7663,162.2620,0,U,69188,999,347,-.59719E-3,-.10333E-2,0
STARLINK-37440,2026-114H,2026-06-08T20:00:03.000384,15.80937719,.0001283,53.1640,243.7005,82.7853,10.5241,0,U,69189,999,347,-.63315E-3,-.124254E-2,0
STARLINK-37282,2026-114J,2026-06-08T20:00:03.000384,15.78035074,.0000706,53.1595,244.0551,94.9067,186.8139,0,U,69190,999,347,.89612E-4,.14905E-3,0
STARLINK-37422,2026-114K,2026-06-08T20:00:03.000384,15.80908006,.0001001,53.1591,244.0227,93.5037,204.5294,0,U,69191,999,347,-.2818E-3,-.56047E-3,0
STARLINK-37424,2026-114L,2026-06-08T20:00:03.000384,15.78073121,.0001161,53.1592,244.0574,68.1434,212.9465,0,U,69192,999,347,-.27271E-3,-.47792E-3,0
STARLINK-36666,2026-114M,2026-06-08T20:00:03.000384,15.80908880,.0000928,53.1589,244.0250,91.0740,205.6959,0,U,69193,999,347,-.28488E-3,-.56649E-3,0
STARLINK-37355,2026-114N,2026-06-08T20:00:03.000384,15.80926911,.0001081,53.1590,244.0167,58.1984,242.8406,0,U,69194,999,347,-.58131E-3,-.11421E-2,0
STARLINK-37166,2026-114P,2026-06-08T20:00:03.000384,15.80914752,.0000872,53.1588,243.9982,64.1519,245.5037,0,U,69195,999,347,-.6787E-3,-.132864E-2,0
STARLINK-36933,2026-114Q,2026-06-08T20:00:03.000384,15.80883535,.0000996,53.1590,244.0076,82.3820,222.9402,0,U,69196,999,347,-.22582E-5,-.1145E-4,0
STARLINK-37419,2026-114R,2026-06-08T20:00:03.000384,15.80891301,.0001049,53.1587,243.9897,96.4560,217.4063,0,U,69197,999,347,-.82465E-4,-.16956E-3,0
