STARLINK-37491          
1 69166U 26111U   26159.79546744  .00261122  00000+0  14568-2 0  9997
2 69166  53.1587 193.6736 0000776  96.6098 263.5012 15.78137108  2936
STARLINK-37474          
1 69167U 26111V   26159.79291459  .00323808  00000+0  17904-2 0  9995
2 69167  53.1591 193.6569 0001009  96.7831 263.3306 15.78161275  2938
STARLINK-37469          
1 69168U 26111W   26159.83336806 -.02577181  00000+0 -32135-1 0  9998
2 69168  53.1597 193.5723 0001359  70.2254 101.6054 15.63004394  4208
STARLINK-37515          
1 69169U 26111X   26159.60126692  .00270437  00000+0  15034-2 0  9994
2 69169  53.1593 194.5947 0001178  78.0554 282.0600 15.78191055  2905
STARLINK-37437          
1 69170U 26111Y   26159.59699957  .00182608  00000+0  10304-2 0  9990
2 69170  53.1593 194.5646 0000916  76.9353 283.1771 15.78115589  2905
STARLINK-37392          
1 69171U 26111Z   26159.83336806 -.00025646  00000+0 -14427-3 0  9990
2 69171  53.1592 193.3552 0000989  87.1449 190.8842 15.78059322  4208
STARLINK-37472          
1 69172U 26111AA  26159.83336806 -.00013548  00000+0 -74310-4 0  9997
2 69172  53.1595 193.3234 0001004 113.1633 180.0683 15.78053469  4203
STARLINK-37461          
1 69173U 26111AB  26159.83336806 -.02592919  00000+0 -30096-1 0  9994
2 69173  53.1596 193.5154 0001250  85.5264 114.0616 15.64822128  4207
STARLINK-37333          
1 69174U 26111AC  26159.59965829  .00157605  00000+0  89221-3 0  9992
2 69174  53.1586 194.5824 0000682 132.3218 227.7861 15.78121709  2901
STARLINK-37385          
1 69175U 26111AD  26159.83336806 -.02582165  00000+0 -27647-1 0  9996
2 69175  53.1593 193.4700 0001131  87.2305 134.4312 15.66794225  4202
STARLINK-37414          
1 69176U 26111AE  26159.83336806  .00019757  00000+0  11752-3 0  9997
2 69176  53.1590 193.3645 0001253 112.3606 161.0489 15.78024451  4207
STRIX-7                 
1 69177U 26112A   26159.72238657  .00003785  00000+0  30499-3 0  9995
2 69177  44.9065 236.9073 0024020 359.1954   0.8875 15.01394611  2601
SHENZHOU-23 (SZ-23)     
1 69180U 26113A   26159.52989194  .00024398  00000+0  29104-3 0  9991
2 69180  41.4696  14.6734 0008548   8.8388 351.2600 15.60445632291882
STARLINK-37380          
1 69182U 26114A   26159.83336806 -.00090544  00000+0 -52222-3 0  9999
2 69182  53.1583 244.2020 0001072  67.2987 143.6577 15.78094527  3471
STARLINK-37089          
1 69183U 26114B   26159.83336806 -.00099963  00000+0 -57745-3 0  9999
2 69183  53.1582 244.1909 0001046  77.3424 138.9255 15.78099622  3476
STARLINK-37428          
1 69184U 26114C   26159.83336806 -.00095297  00000+0 -55005-3 0  9993
2 69184  53.1583 244.1748 0001049  77.0725 147.1917 15.78098189  3477
STARLINK-37237          
1 69185U 26114D   26159.83336806 -.00058224  00000+0 -33333-3 0  9993
2 69185  53.1586 244.1418 0001039  88.3259 151.5871 15.78083573  3470
STARLINK-37365          
1 69186U 26114E   26159.83336806 -.00108850  00000+0 -62966-3 0  9999
2 69186  53.1585 244.1456 0001025  82.0570 156.0692 15.78104038  3475
STARLINK-37209          
1 69187U 26114F   26159.83336806 -.00071051  00000+0 -40816-3 0  9992
2 69187  53.1586 244.1368 0001022  84.5843 157.9388 15.78087394  3473
STARLINK-37359          
1 69188U 26114G   26159.83336806 -.00103330  00000+0 -59719-3 0  9991
2 69188  53.1587 244.1315 0000915  82.7663 162.2620 15.78102565  3473
STARLINK-37440          
1 69189U 26114H   26159.83336806 -.00124254  00000+0 -63315-3 0  9997
2 69189  53.1640 243.7005 0001283  82.7853  10.5241 15.80937719  3479
STARLINK-37282          
1 69190U 26114J   26159.83336806  .00014905  00000+0  89612-4 0  9997
2 69190  53.1595 244.0551 0000706  94.9067 186.8139 15.78035074  3474
STARLINK-37422          
1 69191U 26114K   26159.83336806 -.00056047  00000+0 -28180-3 0  9995
2 69191  53.1591 244.0227 0001001  93.5037 204.5294 15.80908006  3479
STARLINK-37424          
1 69192U 26114L   26159.83336806 -.00047792  00000+0 -27271-3 0  9993
2 69192  53.1592 244.0574 0001161  68.1434 212.9465 15.78073121  3473
STARLINK-36666          
1 69193U 26114M   26159.83336806 -.00056649  00000+0 -28488-3 0  9996
2 69193  53.1589 244.0250 0000928  91.0740 205.6959 15.80908880  3475
STARLINK-37355          
1 69194U 26114N   26159.83336806 -.00114210  00000+0 -58131-3 0  9994
2 69194  53.1590 244.0167 0001081  58.1984 242.8406 15.80926911  3475
STARLINK-37166          
1 69195U 26114P   26159.83336806 -.00132864  00000+0 -67870-3 0  9990
2 69195  53.1588 243.9982 0000872  64.1519 245.5037 15.80914752  3474
STARLINK-36933          
1 69196U 26114Q   26159.83336806 -.00001145  00000+0 -22582-5 0  9991
2 69196  53.1590 244.0076 0000996  82.3820 222.9402 15.80883535  3477
STARLINK-37419          
1 69197U 26114R   26159.83336806 -.00016956  00000+0 -82465-4 0  9993
2 69197  53.1587 243.9897 0001049  96.4560 217.4063 15.80891301  3472
